{"type": "FeatureCollection", "features": [ {"type": "Feature", "properties": {"norad_id": 43648, "name": "BEIDOU-3 M15 (C34)", "group": "gnss", "lat": -46.40125039707319, "lon": -102.90402204765924, "alt_km": 21531.800037971097, "timestamp": "2025-12-21T20:41:08.208048+00:00", "meta": {"OBJECT_NAME": "BEIDOU-3 M15 (C34)", "OBJECT_ID": "2018-078B", "EPOCH": "2025-12-21T10:03:31.555008", "MEAN_MOTION": 1.86232355, "ECCENTRICITY": 0.0004029, "INCLINATION": 54.2498, "RA_OF_ASC_NODE": 306.2184, "ARG_OF_PERICENTER": 19.9234, "MEAN_ANOMALY": 340.0899, "EPHEMERIS_TYPE": 0, "CLASSIFICATION_TYPE": "U", "NORAD_CAT_ID": 43648, "ELEMENT_SET_NO": 999, "REV_AT_EPOCH": 4886, "BSTAR": 0, "MEAN_MOTION_DOT": -6.1e-07, "MEAN_MOTION_DDOT": 0}, "tle": {"line1": "1 43648U 18078B   25355.41911522 -.00000061  00000+0  00000+0 0  9990", "line2": "2 43648  54.2498 306.2184 0004029  19.9234 340.0899  1.86232355 48860"}}, "geometry": {"type": "Point", "coordinates": [-102.90402204765924, -46.40125039707319]}}, {"type": "Feature", "properties": {"norad_id": 43683, "name": "BEIDOU-3 G1 (C59)", "group": "gnss", "lat": 2.5775770697085845, "lon": -179.04347403667867, "alt_km": 35781.31057859864, "timestamp": "2025-12-21T20:41:08.208059+00:00", "meta": {"OBJECT_NAME": "BEIDOU-3 G1 (C59)", "OBJECT_ID": "2018-085A", "EPOCH": "2025-12-21T13:51:51.422400", "MEAN_MOTION": 1.0026809, "ECCENTRICITY": 0.00015498, "INCLINATION": 2.6287, "RA_OF_ASC_NODE": 102.7083, "ARG_OF_PERICENTER": 46.1748, "MEAN_ANOMALY": 289.4828, "EPHEMERIS_TYPE": 0, "CLASSIFICATION_TYPE": "U", "NORAD_CAT_ID": 43683, "ELEMENT_SET_NO": 999, "REV_AT_EPOCH": 2627, "BSTAR": 0, "MEAN_MOTION_DOT": -2.57e-06, "MEAN_MOTION_DDOT": 0}, "tle": {"line1": "1 43683U 18085A   25355.57767850 -.00000257  00000+0  00000+0 0  9994", "line2": "2 43683   2.6287 102.7083 0001549  46.1748 289.4828  1.00268090 26275"}}, "geometry": {"type": "Point", "coordinates": [-179.04347403667867, 2.5775770697085845]}}, {"type": "Feature", "properties": {"norad_id": 43687, "name": "COSMOS 2529 (757)", "group": "gnss", "lat": 40.762837549148514, "lon": -136.86304988889594, "alt_km": 19140.94164258886, "timestamp": "2025-12-21T20:41:08.208070+00:00", "meta": {"OBJECT_NAME": "COSMOS 2529 (757)", "OBJECT_ID": "2018-086A", "EPOCH": "2025-12-21T07:58:09.386112", "MEAN_MOTION": 2.13102154, "ECCENTRICITY": 0.00069464, "INCLINATION": 64.2925, "RA_OF_ASC_NODE": 198.598, "ARG_OF_PERICENTER": 253.6032, "MEAN_ANOMALY": 106.3925, "EPHEMERIS_TYPE": 0, "CLASSIFICATION_TYPE": "U", "NORAD_CAT_ID": 43687, "ELEMENT_SET_NO": 999, "REV_AT_EPOCH": 5549, "BSTAR": 0, "MEAN_MOTION_DOT": 9.7e-07, "MEAN_MOTION_DDOT": 0}, "tle": {"line1": "1 43687U 18086A   25355.33205308  .00000097  00000+0  00000+0 0  9999", "line2": "2 43687  64.2925 198.5980 0006946 253.6032 106.3925  2.13102154 55492"}}, "geometry": {"type": "Point", "coordinates": [-136.86304988889594, 40.762837549148514]}}, {"type": "Feature", "properties": {"norad_id": 43706, "name": "BEIDOU-3 M17 (C36)", "group": "gnss", "lat": -8.43772673988976, "lon": 14.472096230711983, "alt_km": 21537.461055394662, "timestamp": "2025-12-21T20:41:08.208081+00:00", "meta": {"OBJECT_NAME": "BEIDOU-3 M17 (C36)", "OBJECT_ID": "2018-093A", "EPOCH": "2025-12-20T12:04:20.840736", "MEAN_MOTION": 1.86228485, "ECCENTRICITY": 0.00060883, "INCLINATION": 54.1751, "RA_OF_ASC_NODE": 188.3582, "ARG_OF_PERICENTER": 307.8758, "MEAN_ANOMALY": 51.559, "EPHEMERIS_TYPE": 0, "CLASSIFICATION_TYPE": "U", "NORAD_CAT_ID": 43706, "ELEMENT_SET_NO": 999, "REV_AT_EPOCH": 4820, "BSTAR": 0, "MEAN_MOTION_DOT": 9.7e-07, "MEAN_MOTION_DDOT": 0}, "tle": {"line1": "1 43706U 18093A   25354.50301899  .00000097  00000+0  00000+0 0  9999", "line2": "2 43706  54.1751 188.3582 0006088 307.8758  51.5590  1.86228485 48203"}}, "geometry": {"type": "Point", "coordinates": [14.472096230711983, -8.43772673988976]}}, {"type": "Feature", "properties": {"norad_id": 43707, "name": "BEIDOU-3 M18 (C37)", "group": "gnss", "lat": -52.086718893206445, "lon": 120.17076940197096, "alt_km": 21528.375275674993, "timestamp": "2025-12-21T20:41:08.208093+00:00", "meta": {"OBJECT_NAME": "BEIDOU-3 M18 (C37)", "OBJECT_ID": "2018-093B", "EPOCH": "2025-12-20T21:39:28.587744", "MEAN_MOTION": 1.86226757, "ECCENTRICITY": 0.00062168, "INCLINATION": 54.1741, "RA_OF_ASC_NODE": 188.3365, "ARG_OF_PERICENTER": 353.7926, "MEAN_ANOMALY": 6.2524, "EPHEMERIS_TYPE": 0, "CLASSIFICATION_TYPE": "U", "NORAD_CAT_ID": 43707, "ELEMENT_SET_NO": 999, "REV_AT_EPOCH": 4821, "BSTAR": 0, "MEAN_MOTION_DOT": 9.5e-07, "MEAN_MOTION_DDOT": 0}, "tle": {"line1": "1 43707U 18093B   25354.90241421  .00000095  00000+0  00000+0 0  9996", "line2": "2 43707  54.1741 188.3365 0006216 353.7926   6.2524  1.86226757 48217"}}, "geometry": {"type": "Point", "coordinates": [120.17076940197096, -52.086718893206445]}}, {"type": "Feature", "properties": {"norad_id": 43873, "name": "GPS BIII-1  (PRN 04)", "group": "gnss", "lat": -50.89784541166068, "lon": -23.386958242362002, "alt_km": 20130.844521135696, "timestamp": "2025-12-21T20:41:08.208104+00:00", "meta": {"OBJECT_NAME": "GPS BIII-1  (PRN 04)", "OBJECT_ID": "2018-109A", "EPOCH": "2025-12-20T14:49:36.231744", "MEAN_MOTION": 2.00553966, "ECCENTRICITY": 0.0037575, "INCLINATION": 55.571, "RA_OF_ASC_NODE": 99.2363, "ARG_OF_PERICENTER": 195.36, "MEAN_ANOMALY": 236.122, "EPHEMERIS_TYPE": 0, "CLASSIFICATION_TYPE": "U", "NORAD_CAT_ID": 43873, "ELEMENT_SET_NO": 999, "REV_AT_EPOCH": 5149, "BSTAR": 0, "MEAN_MOTION_DOT": -1.2e-07, "MEAN_MOTION_DDOT": 0}, "tle": {"line1": "1 43873U 18109A   25354.61778046 -.00000012  00000+0  00000+0 0  9994", "line2": "2 43873  55.5710  99.2363 0037575 195.3600 236.1220  2.00553966 51494"}}, "geometry": {"type": "Point", "coordinates": [-23.386958242362002, -50.89784541166068]}}, {"type": "Feature", "properties": {"norad_id": 44231, "name": "BEIDOU-2 G8 (C01)", "group": "gnss", "lat": 1.5759492519378449, "lon": -174.6162568793374, "alt_km": 35813.86338477672, "timestamp": "2025-12-21T20:41:08.208115+00:00", "meta": {"OBJECT_NAME": "BEIDOU-2 G8 (C01)", "OBJECT_ID": "2019-027A", "EPOCH": "2025-12-19T12:14:23.449632", "MEAN_MOTION": 1.00276563, "ECCENTRICITY": 0.0008196, "INCLINATION": 1.6785, "RA_OF_ASC_NODE": 74.7229, "ARG_OF_PERICENTER": 258.5641, "MEAN_ANOMALY": 83.1013, "EPHEMERIS_TYPE": 0, "CLASSIFICATION_TYPE": "U", "NORAD_CAT_ID": 44231, "ELEMENT_SET_NO": 999, "REV_AT_EPOCH": 2427, "BSTAR": 0, "MEAN_MOTION_DOT": -2.24e-06, "MEAN_MOTION_DDOT": 0}, "tle": {"line1": "1 44231U 19027A   25353.50999363 -.00000224  00000+0  00000+0 0  9992", "line2": "2 44231   1.6785  74.7229 0008196 258.5641  83.1013  1.00276563 24270"}}, "geometry": {"type": "Point", "coordinates": [-174.6162568793374, 1.5759492519378449]}}, {"type": "Feature", "properties": {"norad_id": 44299, "name": "COSMOS 2534 (758)", "group": "gnss", "lat": -0.7181413473163272, "lon": 18.935545408842366, "alt_km": 19135.607484372023, "timestamp": "2025-12-21T20:41:08.208127+00:00", "meta": {"OBJECT_NAME": "COSMOS 2534 (758)", "OBJECT_ID": "2019-030A", "EPOCH": "2025-12-21T10:55:51.060576", "MEAN_MOTION": 2.13102432, "ECCENTRICITY": 0.00087289, "INCLINATION": 64.366, "RA_OF_ASC_NODE": 198.5992, "ARG_OF_PERICENTER": 284.1192, "MEAN_ANOMALY": 304.9695, "EPHEMERIS_TYPE": 0, "CLASSIFICATION_TYPE": "U", "NORAD_CAT_ID": 44299, "ELEMENT_SET_NO": 999, "REV_AT_EPOCH": 5113, "BSTAR": 0, "MEAN_MOTION_DOT": 9.7e-07, "MEAN_MOTION_DDOT": 0}, "tle": {"line1": "1 44299U 19030A   25355.45545209  .00000097  00000+0  00000+0 0  9999", "line2": "2 44299  64.3660 198.5992 0008728 284.1192 304.9695  2.13102432 51134"}}, "geometry": {"type": "Point", "coordinates": [18.935545408842366, -0.7181413473163272]}}, {"type": "Feature", "properties": {"norad_id": 44337, "name": "BEIDOU-3 IGSO-2 (C39)", "group": "gnss", "lat": 0.11254645816386064, "lon": 160.48209497463768, "alt_km": 35934.59822964172, "timestamp": "2025-12-21T20:41:08.208142+00:00", "meta": {"OBJECT_NAME": "BEIDOU-3 IGSO-2 (C39)", "OBJECT_ID": "2019-035A", "EPOCH": "2025-12-21T14:41:08.547936", "MEAN_MOTION": 1.00268657, "ECCENTRICITY": 0.00376681, "INCLINATION": 55.2285, "RA_OF_ASC_NODE": 160.4234, "ARG_OF_PERICENTER": 202.252, "MEAN_ANOMALY": 67.4255, "EPHEMERIS_TYPE": 0, "CLASSIFICATION_TYPE": "U", "NORAD_CAT_ID": 44337, "ELEMENT_SET_NO": 999, "REV_AT_EPOCH": 2388, "BSTAR": 0, "MEAN_MOTION_DOT": -7.3e-07, "MEAN_MOTION_DDOT": 0}, "tle": {"line1": "1 44337U 19035A   25355.61190449 -.00000073  00000+0  00000+0 0  9992", "line2": "2 44337  55.2285 160.4234 0037668 202.2520  67.4255  1.00268657 23888"}}, "geometry": {"type": "Point", "coordinates": [160.48209497463768, 0.11254645816386064]}}, {"type": "Feature", "properties": {"norad_id": 44506, "name": "GPS BIII-2  (PRN 18)", "group": "gnss", "lat": 27.02158344162557, "lon": 137.82299096519444, "alt_km": 20083.861928857346, "timestamp": "2025-12-21T20:41:08.208158+00:00", "meta": {"OBJECT_NAME": "GPS BIII-2  (PRN 18)", "OBJECT_ID": "2019-056A", "EPOCH": "2025-12-21T09:31:28.987392", "MEAN_MOTION": 2.00566631, "ECCENTRICITY": 0.00577334, "INCLINATION": 55.7184, "RA_OF_ASC_NODE": 338.2094, "ARG_OF_PERICENTER": 198.5612, "MEAN_ANOMALY": 332.7674, "EPHEMERIS_TYPE": 0, "CLASSIFICATION_TYPE": "U", "NORAD_CAT_ID": 44506, "ELEMENT_SET_NO": 999, "REV_AT_EPOCH": 4650, "BSTAR": 0, "MEAN_MOTION_DOT": -7.2e-07, "MEAN_MOTION_DDOT": 0}, "tle": {"line1": "1 44506U 19056A   25355.39686328 -.00000072  00000+0  00000+0 0  9993", "line2": "2 44506  55.7184 338.2094 0057733 198.5612 332.7674  2.00566631 46503"}}, "geometry": {"type": "Point", "coordinates": [137.82299096519444, 27.02158344162557]}}]}